NORAD_CAT_ID,OBJECT_NAME,OBJECT_TYPE,EPOCH,MEAN_MOTION,ECCENTRICITY,INCLINATION,RA_OF_ASC_NODE,ARG_OF_PERICENTER,MEAN_ANOMALY,BSTAR,MEAN_MOTION_DOT,MEAN_MOTION_DDOT,TLE_LINE0,TLE_LINE1,TLE_LINE2,SEMIMAJOR_AXIS,PERIOD,APOGEE,PERIGEE,DECAYED
52662.0,STARLINK-4044,PAYLOAD,2023-09-05 13:49:53,15.08845782,0.0001511,53.2153,306.7155,94.097,266.0195,0.00031202,4.682e-05,0.0,0 STARLINK-4044,1 52662U 22053G   23248.57631575  .00004682  00000-0  31202-3 0  9992,2 52662  53.2153 306.7155 0001511  94.0970 266.0195 15.08845782 72743,6917.863,95.437,540.773,538.682,0.0
52662.0,STARLINK-4044,PAYLOAD,2023-09-06 04:08:22,15.08845584,0.0001527,53.2151,304.0392,95.007,265.1096,0.00039428,5.993e-05,0.0,0 STARLINK-4044,1 52662U 22053G   23249.17247768  .00005993  00000-0  39428-3 0  9990,2 52662  53.2151 304.0392 0001527  95.0070 265.1096 15.08845584 72834,6917.863,95.437,540.785,538.672,0.0
52662.0,STARLINK-4044,PAYLOAD,2023-09-06 15:16:03,15.08856314,0.0001561,53.2155,301.957,96.8607,263.2563,0.00042734,6.523e-05,0.0,0 STARLINK-4044,1 52662U 22053G   23249.63615145  .00006523  00000-0  42734-3 0  9993,2 52662  53.2155 301.9570 0001561  96.8607 263.2563 15.08856314 72904,6917.831,95.437,540.775,538.616,0.0
52662.0,STARLINK-4044,PAYLOAD,2023-09-07 08:45:18,15.08831513,0.0001438,53.2159,298.6863,94.3993,265.7163,-0.00013782,-2.48e-05,0.0,0 STARLINK-4044,1 52662U 22053G   23250.36480087 -.00002480  00000-0 -13782-3 0  9991,2 52662  53.2159 298.6863 0001438  94.3993 265.7163 15.08831513 73019,6917.906,95.438,540.766,538.777,0.0
52662.0,STARLINK-4044,PAYLOAD,2023-09-07 13:31:28,15.08823111,0.0001552,53.2159,297.7948,94.6112,265.5057,-0.00024933,-4.252e-05,0.0,0 STARLINK-4044,1 52662U 22053G   23250.56352697 -.00004252  00000-0 -24933-3 0  9997,2 52662  53.2159 297.7948 0001552  94.6112 265.5057 15.08823111 73044,6917.932,95.439,540.871,538.723,0.0
52662.0,STARLINK-4044,PAYLOAD,2023-09-07 15:06:52,15.08822224,0.0001519,53.2163,297.4961,101.1498,258.9665,-0.00014411,-2.58e-05,0.0,0 STARLINK-4044,1 52662U 22053G   23250.62977630 -.00002580  00000-0 -14411-3 0  9996,2 52662  53.2163 297.4961 0001519 101.1498 258.9665 15.08822224 73051,6917.935,95.439,540.851,538.749,0.0
52662.0,STARLINK-4044,PAYLOAD,2023-09-07 19:53:01,15.08827001,0.0001418,53.216,296.6063,85.8155,274.2999,-0.00012496,-2.275e-05,0.0,0 STARLINK-4044,1 52662U 22053G   23250.82849482 -.00002275  00000-0 -12496-3 0  9993,2 52662  53.2160 296.6063 0001418  85.8155 274.2999 15.08827001 73080,6917.92,95.438,540.766,538.804,0.0
52662.0,STARLINK-4044,PAYLOAD,2023-09-08 10:11:29,15.08835813,0.0001478,53.2162,293.9292,84.936,275.1801,-7.1175e-05,-1.42e-05,0.0,0 STARLINK-4044,1 52662U 22053G   23251.42465180 -.00001420  00000-0 -71175-4 0  9990,2 52662  53.2162 293.9292 0001478  84.9360 275.1801 15.08835813 73172,6917.893,95.438,540.781,538.736,0.0
52662.0,STARLINK-4044,PAYLOAD,2023-09-08 19:43:48,15.08831974,0.0001378,53.2157,292.1457,82.9063,277.2086,0.00011094,1.478e-05,0.0,0 STARLINK-4044,1 52662U 22053G   23251.82208960  .00001478  00000-0  11094-3 0  9999,2 52662  53.2157 292.1457 0001378  82.9063 277.2086 15.08831974 73236,6917.905,95.438,540.723,538.817,0.0
52662.0,STARLINK-4044,PAYLOAD,2023-09-09 10:02:16,15.08837008,0.0001442,53.2156,289.4687,81.2983,278.8173,0.00023876,3.514e-05,0.0,0 STARLINK-4044,1 52662U 22053G   23252.41824605  .00003514  00000-0  23876-3 0  9999,2 52662  53.2156 289.4687 0001442  81.2983 278.8173 15.08837008 73322,6917.89,95.438,540.752,538.757,0.0
52662.0,STARLINK-4044,PAYLOAD,2023-09-09 11:37:39,15.08838692,0.0001454,53.2156,289.1712,81.1106,279.0051,0.00025425,3.761e-05,0.0,0 STARLINK-4044,1 52662U 22053G   23252.48448566  .00003761  00000-0  25425-3 0  9990,2 52662  53.2156 289.1712 0001454  81.1106 279.0051 15.08838692 73336,6917.884,95.438,540.755,538.744,0.0
52662.0,STARLINK-4044,PAYLOAD,2023-09-10 09:53:03,15.08854406,0.000149,53.2157,285.0081,86.9284,273.1878,0.00023687,3.485e-05,0.0,0 STARLINK-4044,1 52662U 22053G   23253.41184032  .00003485  00000-0  23687-3 0  9990,2 52662  53.2157 285.0081 0001490  86.9284 273.1878 15.08854406 73479,6917.836,95.437,540.732,538.671,0.0
52662.0,STARLINK-4044,PAYLOAD,2023-09-11 01:46:54,15.08845863,0.0001537,53.2146,282.0344,91.358,268.7588,4.8269e-05,4.8e-06,0.0,0 STARLINK-4044,1 52662U 22053G   23254.07424294  .00000480  00000-0  48269-4 0  9996,2 52662  53.2146 282.0344 0001537  91.3580 268.7588 15.08845863 73573,6917.862,95.437,540.791,538.664,0.0
52662.0,STARLINK-4044,PAYLOAD,2023-09-11 08:08:27,15.08844434,0.0001516,53.2156,280.8451,92.3775,267.7391,2.5754e-05,1.22e-06,0.0,0 STARLINK-4044,1 52662U 22053G   23254.33920665  .00000122  00000-0  25754-4 0  9995,2 52662  53.2156 280.8451 0001516  92.3775 267.7391 15.08844434 73612,6917.867,95.437,540.781,538.683,0.0
52662.0,STARLINK-4044,PAYLOAD,2023-09-12 09:34:37,15.08848309,0.0001557,53.2156,276.0868,95.5407,264.5763,8.1389e-06,-1.58e-06,0.0,0 STARLINK-4044,1 52662U 22053G   23255.39903969 -.00000158  00000-0  81389-5 0  9997,2 52662  53.2156 276.0868 0001557  95.5407 264.5763 15.08848309 73773,6917.855,95.437,540.797,538.643,0.0
52662.0,STARLINK-4044,PAYLOAD,2023-09-12 11:10:00,15.08848978,0.0001561,53.2156,275.7891,96.3936,263.7234,1.3048e-05,-8e-07,0.0,0 STARLINK-4044,1 52662U 22053G   23255.46527861 -.00000080  00000-0  13048-4 0  9998,2 52662  53.2156 275.7891 0001561  96.3936 263.7234 15.08848978 73783,6917.853,95.437,540.798,538.638,0.0
52662.0,STARLINK-4044,PAYLOAD,2023-09-13 07:50:00,15.08846993,0.000157,53.2158,271.9223,99.1248,260.9921,0.00012961,1.776e-05,0.0,0 STARLINK-4044,1 52662U 22053G   23256.32639574  .00001776  00000-0  12961-3 0  9993,2 52662  53.2158 271.9223 0001570  99.1248 260.9921 15.08846993 73911,6917.859,95.437,540.81,538.638,0.0
52662.0,STARLINK-4044,PAYLOAD,2023-09-14 01:19:16,15.08831967,0.0001504,53.2155,268.6511,82.1455,277.9708,-1.7689e-05,-5.69e-06,0.0,0 STARLINK-4044,1 52662U 22053G   23257.05505150 -.00000569  00000-0 -17689-4 0  9990,2 52662  53.2155 268.6511 0001504  82.1455 277.9708 15.08831967 74029,6917.905,95.438,540.81,538.729,0.0
52662.0,STARLINK-4044,PAYLOAD,2023-09-14 07:40:49,15.08827409,0.0001547,53.2157,267.4617,93.8638,266.2531,-7.8255e-05,-1.533e-05,0.0,0 STARLINK-4044,1 52662U 22053G   23257.32001691 -.00001533  00000-0 -78255-4 0  9999,2 52662  53.2157 267.4617 0001547  93.8638 266.2531 15.08827409 74069,6917.919,95.438,540.854,538.714,0.0
52662.0,STARLINK-4044,PAYLOAD,2023-09-14 17:13:07,15.08833734,0.0001555,53.2161,265.6776,91.1223,268.9947,-1.7406e-05,-5.65e-06,0.0,0 STARLINK-4044,1 52662U 22053G   23257.71745363 -.00000565  00000-0 -17406-4 0  9998,2 52662  53.2161 265.6776 0001555  91.1223 268.9947 15.08833734 74125,6917.9,95.438,540.84,538.689,0.0
52662.0,STARLINK-4044,PAYLOAD,2023-09-15 05:56:12,15.08842837,0.0001504,53.2157,263.2981,75.2566,284.8592,-6.8035e-06,-3.96e-06,0.0,0 STARLINK-4044,1 52662U 22053G   23258.24736993 -.00000396  00000-0 -68035-5 0  9993,2 52662  53.2157 263.2981 0001504  75.2566 284.8592 15.08842837 74205,6917.872,95.437,540.777,538.696,0.0
52662.0,STARLINK-4044,PAYLOAD,2023-09-16 07:22:22,15.08839628,0.00015,53.2156,258.5423,91.079,269.0374,0.00022907,3.36e-05,0.0,0 STARLINK-4044,1 52662U 22053G   23259.30720806  .00003360  00000-0  22907-3 0  9995,2 52662  53.2156 258.5423 0001500  91.0790 269.0374 15.08839628 74367,6917.882,95.438,540.784,538.709,0.0
52662.0,STARLINK-4044,PAYLOAD,2023-09-16 10:33:08,15.08842128,0.000152,53.2156,257.947,90.1197,269.9969,0.00024712,3.647e-05,0.0,0 STARLINK-4044,1 52662U 22053G   23259.43968674  .00003647  00000-0  24712-3 0  9990,2 52662  53.2156 257.9470 0001520  90.1197 269.9969 15.08842128 74385,6917.874,95.437,540.79,538.687,0.0
52662.0,STARLINK-4044,PAYLOAD,2023-09-16 23:16:14,15.08841028,0.0001815,53.2157,255.5683,89.0891,271.0309,7.9004e-05,9.69e-06,0.0,0 STARLINK-4044,1 52662U 22053G   23259.96961339  .00000969  00000-0  79004-4 0  9998,2 52662  53.2157 255.5683 0001815  89.0891 271.0309 15.08841028 74460,6917.877,95.437,540.998,538.487,0.0
52662.0,STARLINK-4044,PAYLOAD,2023-09-17 07:13:10,15.08840671,0.000171,53.2165,254.0812,87.3877,272.7311,5.7445e-05,6.26e-06,0.0,0 STARLINK-4044,1 52662U 22053G   23260.30081474  .00000626  00000-0  57445-4 0  9996,2 52662  53.2165 254.0812 0001710  87.3877 272.7311 15.08840671 74516,6917.878,95.438,540.926,538.56,0.0
52662.0,STARLINK-4044,PAYLOAD,2023-09-18 07:03:56,15.08851795,0.0001933,53.2159,249.6215,120.9286,239.1896,6.3476e-05,7.23e-06,0.0,0 STARLINK-4044,1 52662U 22053G   23261.29440366  .00000723  00000-0  63476-4 0  9993,2 52662  53.2159 249.6215 0001933 120.9286 239.1896 15.08851795 74661,6917.844,95.437,541.047,538.372,0.0
52662.0,STARLINK-4044,PAYLOAD,2023-09-18 16:36:15,15.08845876,0.000158,53.2159,247.8384,92.7912,267.3261,0.00010009,1.306e-05,0.0,0 STARLINK-4044,1 52662U 22053G   23261.69184677  .00001306  00000-0  10009-3 0  9998,2 52662  53.2159 247.8384 0001580  92.7912 267.3261 15.08845876 74727,6917.862,95.437,540.82,538.634,0.0
52662.0,STARLINK-4044,PAYLOAD,2023-09-19 16:27:02,15.08837729,0.0001779,53.2153,243.3773,78.6763,281.4429,2.2278e-05,6.6e-07,0.0,0 STARLINK-4044,1 52662U 22053G   23262.68545065  .00000066  00000-0  22278-4 0  9994,2 52662  53.2153 243.3773 0001779  78.6763 281.4429 15.08837729 74878,6917.887,95.438,540.983,538.522,0.0
52662.0,STARLINK-4044,PAYLOAD,2023-09-20 08:20:54,15.08838018,0.000166,53.2152,240.4013,94.4733,265.6449,6.1877e-06,-1.9e-06,0.0,0 STARLINK-4044,1 52662U 22053G   23263.34785150 -.00000190  00000-0  61877-5 0  9997,2 52662  53.2152 240.4013 0001660  94.4733 265.6449 15.08838018 74973,6917.886,95.438,540.9,538.603,0.0
52662.0,STARLINK-4044,PAYLOAD,2023-09-20 21:03:59,15.08830529,0.000162,53.2147,238.0208,101.2199,258.8975,-4.3996e-06,-3.58e-06,0.0,0 STARLINK-4044,1 52662U 22053G   23263.87777729 -.00000358  00000-0 -43996-5 0  9997,2 52662  53.2147 238.0208 0001620 101.2199 258.8975 15.08830529 75052,6917.909,95.438,540.895,538.654,0.0
